[{"OBJECT_NAME":"BEIDOU-3 M3 (C21)","OBJECT_ID":"2018-018B","EPOCH":"2026-04-04T16:54:52.303392","MEAN_MOTION":1.86231209,"ECCENTRICITY":0.0010159,"INCLINATION":56.5887,"RA_OF_ASC_NODE":65.5733,"ARG_OF_PERICENTER":324.5695,"MEAN_ANOMALY":35.3353,"EPHEMERIS_TYPE":0,"CLASSIFICATION_TYPE":"U","NORAD_CAT_ID":43208,"ELEMENT_SET_NO":999,"REV_AT_EPOCH":5537,"BSTAR":0,"MEAN_MOTION_DOT":-3.9e-7,"MEAN_MOTION_DDOT":0},{"OBJECT_NAME":"BEIDOU-3 M9 (C29)","OBJECT_ID":"2018-029A","EPOCH":"2026-04-04T22:07:59.791584","MEAN_MOTION":1.86228453,"ECCENTRICITY":0.00010205,"INCLINATION":54.2603,"RA_OF_ASC_NODE":302.5104,"ARG_OF_PERICENTER":55.5089,"MEAN_ANOMALY":304.5186,"EPHEMERIS_TYPE":0,"CLASSIFICATION_TYPE":"U","NORAD_CAT_ID":43245,"ELEMENT_SET_NO":999,"REV_AT_EPOCH":5453,"BSTAR":0,"MEAN_MOTION_DOT":-5.8e-7,"MEAN_MOTION_DDOT":0},{"OBJECT_NAME":"BEIDOU-3 M10 (C30)","OBJECT_ID":"2018-029B","EPOCH":"2026-04-04T20:34:00.712416","MEAN_MOTION":1.86229111,"ECCENTRICITY":0.00051306,"INCLINATION":54.2578,"RA_OF_ASC_NODE":302.5395,"ARG_OF_PERICENTER":31.3928,"MEAN_ANOMALY":328.6559,"EPHEMERIS_TYPE":0,"CLASSIFICATION_TYPE":"U","NORAD_CAT_ID":43246,"ELEMENT_SET_NO":999,"REV_AT_EPOCH":5451,"BSTAR":0,"MEAN_MOTION_DOT":-5.9e-7,"MEAN_MOTION_DDOT":0},{"OBJECT_NAME":"IRNSS-1I","OBJECT_ID":"2018-035A","EPOCH":"2026-04-04T23:56:37.359168","MEAN_MOTION":1.00279265,"ECCENTRICITY":0.00183387,"INCLINATION":29.0064,"RA_OF_ASC_NODE":75.3228,"ARG_OF_PERICENTER":190.1122,"MEAN_ANOMALY":342.2508,"EPHEMERIS_TYPE":0,"CLASSIFICATION_TYPE":"U","NORAD_CAT_ID":43286,"ELEMENT_SET_NO":999,"REV_AT_EPOCH":2934,"BSTAR":0,"MEAN_MOTION_DOT":9.1e-7,"MEAN_MOTION_DDOT":0},{"OBJECT_NAME":"COSMOS 2527 (756)","OBJECT_ID":"2018-053A","EPOCH":"2026-04-04T09:51:11.976192","MEAN_MOTION":2.13102083,"ECCENTRICITY":0.00092159,"INCLINATION":65.5379,"RA_OF_ASC_NODE":76.3665,"ARG_OF_PERICENTER":247.9985,"MEAN_ANOMALY":111.8895,"EPHEMERIS_TYPE":0,"CLASSIFICATION_TYPE":"U","NORAD_CAT_ID":43508,"ELEMENT_SET_NO":999,"REV_AT_EPOCH":6070,"BSTAR":0,"MEAN_MOTION_DOT":-1.0e-8,"MEAN_MOTION_DDOT":0},{"OBJECT_NAME":"BEIDOU-2 IGSO-7 (C16)","OBJECT_ID":"2018-057A","EPOCH":"2026-03-27T15:08:38.812992","MEAN_MOTION":1.00275701,"ECCENTRICITY":0.01017729,"INCLINATION":55.1838,"RA_OF_ASC_NODE":163.7722,"ARG_OF_PERICENTER":237.2605,"MEAN_ANOMALY":124.1194,"EPHEMERIS_TYPE":0,"CLASSIFICATION_TYPE":"U","NORAD_CAT_ID":43539,"ELEMENT_SET_NO":999,"REV_AT_EPOCH":2831,"BSTAR":0,"MEAN_MOTION_DOT":-1.68e-6,"MEAN_MOTION_DDOT":0},{"OBJECT_NAME":"GSAT0221 (GALILEO 25)","OBJECT_ID":"2018-060A","EPOCH":"2026-03-31T01:10:55.184448","MEAN_MOTION":1.70475638,"ECCENTRICITY":0.0004721,"INCLINATION":57.1934,"RA_OF_ASC_NODE":343.8925,"ARG_OF_PERICENTER":315.0021,"MEAN_ANOMALY":45.0002,"EPHEMERIS_TYPE":0,"CLASSIFICATION_TYPE":"U","NORAD_CAT_ID":43564,"ELEMENT_SET_NO":999,"REV_AT_EPOCH":4783,"BSTAR":0,"MEAN_MOTION_DOT":-9.9e-7,"MEAN_MOTION_DDOT":0},{"OBJECT_NAME":"GSAT0222 (GALILEO 26)","OBJECT_ID":"2018-060B","EPOCH":"2026-04-03T04:50:28.857696","MEAN_MOTION":1.70475247,"ECCENTRICITY":0.0002935,"INCLINATION":57.1971,"RA_OF_ASC_NODE":343.8104,"ARG_OF_PERICENTER":285.5245,"MEAN_ANOMALY":74.4895,"EPHEMERIS_TYPE":0,"CLASSIFICATION_TYPE":"U","NORAD_CAT_ID":43565,"ELEMENT_SET_NO":999,"REV_AT_EPOCH":4793,"BSTAR":0,"MEAN_MOTION_DOT":-9.6e-7,"MEAN_MOTION_DDOT":0},{"OBJECT_NAME":"GSAT0219 (GALILEO 23)","OBJECT_ID":"2018-060C","EPOCH":"2026-04-04T14:18:05.334912","MEAN_MOTION":1.70475577,"ECCENTRICITY":0.00040319,"INCLINATION":57.1954,"RA_OF_ASC_NODE":343.7746,"ARG_OF_PERICENTER":327.6445,"MEAN_ANOMALY":32.378,"EPHEMERIS_TYPE":0,"CLASSIFICATION_TYPE":"U","NORAD_CAT_ID":43566,"ELEMENT_SET_NO":999,"REV_AT_EPOCH":4793,"BSTAR":0,"MEAN_MOTION_DOT":-9.4e-7,"MEAN_MOTION_DDOT":0},{"OBJECT_NAME":"GSAT0220 (GALILEO 24)","OBJECT_ID":"2018-060D","EPOCH":"2026-04-02T11:17:30.089760","MEAN_MOTION":1.70475758,"ECCENTRICITY":0.00046012,"INCLINATION":57.1953,"RA_OF_ASC_NODE":343.8319,"ARG_OF_PERICENTER":318.6748,"MEAN_ANOMALY":41.336,"EPHEMERIS_TYPE":0,"CLASSIFICATION_TYPE":"U","NORAD_CAT_ID":43567,"ELEMENT_SET_NO":999,"REV_AT_EPOCH":4788,"BSTAR":0,"MEAN_MOTION_DOT":-9.7e-7,"MEAN_MOTION_DDOT":0},{"OBJECT_NAME":"BEIDOU-3 M5 (C23)","OBJECT_ID":"2018-062A","EPOCH":"2026-04-02T09:30:45.099648","MEAN_MOTION":1.86224644,"ECCENTRICITY":0.00035105,"INCLINATION":54.085,"RA_OF_ASC_NODE":184.881,"ARG_OF_PERICENTER":295.8623,"MEAN_ANOMALY":64.1328,"EPHEMERIS_TYPE":0,"CLASSIFICATION_TYPE":"U","NORAD_CAT_ID":43581,"ELEMENT_SET_NO":999,"REV_AT_EPOCH":5222,"BSTAR":0,"MEAN_MOTION_DOT":8.0e-8,"MEAN_MOTION_DDOT":0},{"OBJECT_NAME":"BEIDOU-3 M6 (C24)","OBJECT_ID":"2018-062B","EPOCH":"2026-04-03T08:00:01.903968","MEAN_MOTION":1.86227743,"ECCENTRICITY":0.00052163,"INCLINATION":54.0846,"RA_OF_ASC_NODE":184.8383,"ARG_OF_PERICENTER":31.289,"MEAN_ANOMALY":328.7793,"EPHEMERIS_TYPE":0,"CLASSIFICATION_TYPE":"U","NORAD_CAT_ID":43582,"ELEMENT_SET_NO":999,"REV_AT_EPOCH":5224,"BSTAR":0,"MEAN_MOTION_DOT":1.4e-7,"MEAN_MOTION_DDOT":0},{"OBJECT_NAME":"BEIDOU-3 M12 (C26)","OBJECT_ID":"2018-067A","EPOCH":"2026-03-30T12:18:45.296064","MEAN_MOTION":1.8622771,"ECCENTRICITY":0.0008139,"INCLINATION":54.1801,"RA_OF_ASC_NODE":183.7084,"ARG_OF_PERICENTER":37.0616,"MEAN_ANOMALY":323.0089,"EPHEMERIS_TYPE":0,"CLASSIFICATION_TYPE":"U","NORAD_CAT_ID":43602,"ELEMENT_SET_NO":999,"REV_AT_EPOCH":5165,"BSTAR":0,"MEAN_MOTION_DOT":-2.6e-7,"MEAN_MOTION_DDOT":0},{"OBJECT_NAME":"BEIDOU-3 M11 (C25)","OBJECT_ID":"2018-067B","EPOCH":"2026-04-03T09:45:31.010688","MEAN_MOTION":1.86227234,"ECCENTRICITY":0.00046423,"INCLINATION":54.1769,"RA_OF_ASC_NODE":183.54,"ARG_OF_PERICENTER":26.6069,"MEAN_ANOMALY":333.4575,"EPHEMERIS_TYPE":0,"CLASSIFICATION_TYPE":"U","NORAD_CAT_ID":43603,"ELEMENT_SET_NO":999,"REV_AT_EPOCH":5175,"BSTAR":0,"MEAN_MOTION_DOT":1.5e-7,"MEAN_MOTION_DDOT":0},{"OBJECT_NAME":"BEIDOU-3 M13 (C32)","OBJECT_ID":"2018-072A","EPOCH":"2026-04-04T23:20:58.102080","MEAN_MOTION":1.86231084,"ECCENTRICITY":0.0009111,"INCLINATION":56.563,"RA_OF_ASC_NODE":65.0735,"ARG_OF_PERICENTER":313.8269,"MEAN_ANOMALY":46.0701,"EPHEMERIS_TYPE":0,"CLASSIFICATION_TYPE":"U","NORAD_CAT_ID":43622,"ELEMENT_SET_NO":999,"REV_AT_EPOCH":5129,"BSTAR":0,"MEAN_MOTION_DOT":-3.9e-7,"MEAN_MOTION_DDOT":0},{"OBJECT_NAME":"BEIDOU-3 M14 (C33)","OBJECT_ID":"2018-072B","EPOCH":"2026-04-04T20:07:12.772128","MEAN_MOTION":1.86231146,"ECCENTRICITY":0.00069068,"INCLINATION":56.5647,"RA_OF_ASC_NODE":65.0721,"ARG_OF_PERICENTER":335.0307,"MEAN_ANOMALY":24.908,"EPHEMERIS_TYPE":0,"CLASSIFICATION_TYPE":"U","NORAD_CAT_ID":43623,"ELEMENT_SET_NO":999,"REV_AT_EPOCH":5128,"BSTAR":0,"MEAN_MOTION_DOT":-4.0e-7,"MEAN_MOTION_DDOT":0},{"OBJECT_NAME":"BEIDOU-3 M16 (C35)","OBJECT_ID":"2018-078A","EPOCH":"2026-04-03T09:12:55.395936","MEAN_MOTION":1.8623242,"ECCENTRICITY":0.00083902,"INCLINATION":54.1581,"RA_OF_ASC_NODE":302.608,"ARG_OF_PERICENTER":35.6309,"MEAN_ANOMALY":324.4467,"EPHEMERIS_TYPE":0,"CLASSIFICATION_TYPE":"U","NORAD_CAT_ID":43647,"ELEMENT_SET_NO":999,"REV_AT_EPOCH":5076,"BSTAR":0,"MEAN_MOTION_DOT":-6.3e-7,"MEAN_MOTION_DDOT":0}]
